GLOBALSTAR M068         
1 32266U 07048D   24182.74533049 -.00000056  00000+0  26774-3 0  9990
2 32266  51.9897 293.5433 0001518 102.8907  49.2775 12.62792785773157
GLOBALSTAR M079         
1 37188U 10054A   24183.57637086 -.00000093  00000+0  59223-4 0  9994
2 37188  52.0029 127.0998 0000264   0.9487 180.0486 12.62271393632850
GLOBALSTAR M074         
1 37189U 10054B   24182.86086255 -.00000089  00000+0  83230-4 0  9992
2 37189  52.0005 128.6561 0000442  36.3116  10.7644 12.62269894632698
GLOBALSTAR M076         
1 37190U 10054C   24183.38478778 -.00000095  00000+0  47177-4 0  9994
2 37190  52.0019 127.1991 0000607 349.6268 160.2825 12.62262391632830
GLOBALSTAR M077         
1 37191U 10054D   24182.96080715 -.00000096  00000+0  45179-4 0  9999
2 37191  52.0076  85.2451 0000731  49.3401  33.0359 12.62274197632791
GLOBALSTAR M075         
1 37192U 10054E   24183.39815111 -.00000083  00000+0  11322-3 0  9992
2 37192  51.9919 169.6113 0000084  46.1011 104.4539 12.62261290632075
GLOBALSTAR M073         
1 37193U 10054F   24182.90767531 -.00000096  00000+0  40780-4 0  9996
2 37193  52.0065  84.6574 0000634  43.5804  35.6841 12.62266495633477
GLOBALSTAR M083         
1 37739U 11033A   24182.90603443 -.00000081  00000+0  12656-3 0  9995
2 37739  51.9872  33.8716 0000800  94.4395 279.3127 12.62261518602499
GLOBALSTAR M088         
1 37740U 11033B   24183.07255984 -.00000095  00000+0  47795-4 0  9997
2 37740  51.9747 299.1527 0000767 133.8645  36.8631 12.62264672598345
GLOBALSTAR M091         
1 37741U 11033C   24183.21276230 -.00000092  00000+0  63137-4 0  9996
2 37741  51.9994 261.6559 0000769 156.0529 230.6774 12.62264321599129
GLOBALSTAR M085         
1 37742U 11033D   24183.11748361 -.00000086  00000+0  10139-3 0  9991
2 37742  51.9842 213.2922 0000407 176.0203 199.0249 12.62263079599853
GLOBALSTAR M081         
1 37743U 11033E   24183.57293876 -.00000068  00000+0  19766-3 0  9993
2 37743  51.9930 214.4770 0000411 207.1228 317.7067 12.62266614599949
GLOBALSTAR M089         
1 37744U 11033F   24183.45493400 -.00000081  00000+0  12443-3 0  9996
2 37744  51.9903 169.1306 0000436 346.0693 180.8587 12.62265544600644
GLOBALSTAR M084         
1 38040U 11080A   24182.87967338 -.00000097  00000+0  36447-4 0  9997
2 38040  52.0023  37.9815 0000949  61.0042 312.0493 12.62263859578306
GLOBALSTAR M080         
1 38041U 11080B   24183.56769799 -.00000090  00000+0  76205-4 0  9995
2 38041  52.0074  37.3699 0000796  46.0458 335.4356 12.62262384578658
GLOBALSTAR M082         
1 38042U 11080C   24182.89619729 -.00000090  00000+0  79544-4 0  9997
2 38042  52.0092 354.8242 0001346 113.6784  34.3205 12.62270751579134
GLOBALSTAR M092         
1 38043U 11080D   24183.50833417 -.00000107  00000+0 -19625-4 0  9993
2 38043  52.0090  83.3169 0000794  56.7008 114.9640 12.62263077577877
GLOBALSTAR M090         
1 38044U 11080E   24182.91656712 -.00000085  00000+0  10365-3 0  9994
2 38044  51.9903 349.0236 0001020 111.4612   8.9992 12.62264467579259
GLOBALSTAR M086         
1 38045U 11080F   24183.47824340 -.00000085  00000+0  10221-3 0  9992
2 38045  51.9915 347.8357 0000298 193.0847 201.7858 12.62263831579376
GLOBALSTAR M097         
1 39072U 13005A   24183.18084905 -.00000092  00000+0  63418-4 0  9990
2 39072  52.0044 262.9372 0000633 158.6919 201.3974 12.62263998526568
GLOBALSTAR M093         
1 39073U 13005B   24182.91657918 -.00000091  00000+0  70892-4 0  9994
2 39073  51.9803 257.6048 0000693 172.0511 188.0366 12.62275528526406
GLOBALSTAR M094         
1 39074U 13005C   24182.67896223 -.00000090  00000+0  76369-4 0  9996
2 39074  51.9929 172.3557 0000156 226.1319 133.9534 12.62267352527981
GLOBALSTAR M096         
1 39075U 13005D   24183.16721949 -.00000085  00000+0  10232-3 0  9994
2 39075  52.0048 219.1111 0000551 184.3520 175.7342 12.62267382527311
GLOBALSTAR M078         
1 39076U 13005E   24183.06182972 -.00000169  00000+0 -36173-3 0  9997
2 39076  51.9892 304.4209 0001619 119.3299 240.7730 12.62270924525789
GLOBALSTAR M095         
1 39077U 13005F   24183.48370223 -.00000102  00000+0  94584-5 0  9990
2 39077  51.9814 300.5036 0001251 139.9597 220.1362 12.62261658525844
GLOBALSTAR M087         
1 52888U 22064A   24182.63362946 -.00000090  00000+0  72153-4 0  9992
2 52888  51.9737 161.4935 0009664  39.4865 320.6739 13.37577395 99327
